STARLINK-35647          
1 66388U 25257J   25341.25005787  .00082876  00000+0  20637-2 0  9991
2 66388  53.1602 290.3168 0001345  81.0245 339.3312 15.39556802  5612
STARLINK-35694          
1 66389U 25257K   25341.25005787  .00079014  00000+0  19690-2 0  9999
2 66389  53.1593 290.2611 0001206 101.4444 346.5090 15.39557293  5616
STARLINK-35665          
1 66390U 25257L   25341.27525210  .00165447  00000+0  29120-2 0  9996
2 66390  53.1594 289.8739 0001309  94.4645 265.6513 15.49388839  5634
STARLINK-35656          
1 66391U 25257M   25341.29946903  .00079243  00000+0  19714-2 0  9991
2 66391  53.1598 290.0172 0001484 119.2267 240.8886 15.39607190  5635
STARLINK-35671          
1 66392U 25257N   25341.25005787  .00105293  00000+0  26126-2 0  9994
2 66392  53.1602 290.3124 0001733  92.5879 329.6122 15.39544403  5615
STARLINK-35652          
1 66393U 25257P   25341.25005787  .00090151  00000+0  22419-2 0  9992
2 66393  53.1589 290.2133 0001473  97.4726  14.3827 15.39556082  5611
STARLINK-35672          
1 66394U 25257Q   25341.25005787 -.00481388  00000+0 -12679-1 0  9997
2 66394  53.1590 290.2087 0001254  75.1606  38.5094 15.39909783  5613
STARLINK-35681          
1 66395U 25257R   25341.25005787  .00090418  00000+0  22493-2 0  9992
2 66395  53.1592 290.1619 0000875  93.5267  44.1106 15.39544627  5452
STARLINK-35669          
1 66396U 25257S   25341.25005787  .00090103  00000+0  22414-2 0  9997
2 66396  53.1591 290.1573 0000846  97.6495  41.8181 15.39546270  5618
STARLINK-35510          
1 66397U 25257T   25341.25005787 -.00244395  00000+0 -62710-2 0  9997
2 66397  53.1596 290.1099 0000931  92.2243  71.0782 15.39749152  5610
STARLINK-35642          
1 66398U 25257U   25340.50545917 -.00086994  00000+0 -16841-2 0  9992
2 66398  53.1588 293.6043 0001327 337.0200  23.0748 15.47370943  5416
STARLINK-35657          
1 66399U 25257V   25341.25005787  .00115675  00000+0  28690-2 0  9994
2 66399  53.1596 290.1056 0001093 121.4537  43.7738 15.39505365  5619
