CCSDS_OMM_VERS = 2.0
CREATION_DATE  = 
ORIGINATOR     = 

OBJECT_NAME    = STARLINK-35647
OBJECT_ID      = 2025-257J
CENTER_NAME    = EARTH
REF_FRAME      = TEME
TIME_SYSTEM    = UTC
MEAN_ELEMENT_THEORY = SGP/SGP4

EPOCH          = 2025-12-07T06:00:04.999968
MEAN_MOTION    = 15.39556802
ECCENTRICITY   = .0001345
INCLINATION    = 53.1602
RA_OF_ASC_NODE = 290.3168
ARG_OF_PERICENTER = 81.0245
MEAN_ANOMALY   = 339.3312

EPHEMERIS_TYPE = 0
CLASSIFICATION_TYPE = U
NORAD_CAT_ID   = 66388
ELEMENT_SET_NO = 999
REV_AT_EPOCH   = 561
BSTAR          = .2063714E-2
MEAN_MOTION_DOT = .82876E-3
MEAN_MOTION_DDOT = 0

CCSDS_OMM_VERS = 2.0
CREATION_DATE  = 
ORIGINATOR     = 

OBJECT_NAME    = STARLINK-35694
OBJECT_ID      = 2025-257K
CENTER_NAME    = EARTH
REF_FRAME      = TEME
TIME_SYSTEM    = UTC
MEAN_ELEMENT_THEORY = SGP/SGP4

EPOCH          = 2025-12-07T06:00:04.999968
MEAN_MOTION    = 15.39557293
ECCENTRICITY   = .00012069
INCLINATION    = 53.1593
RA_OF_ASC_NODE = 290.2611
ARG_OF_PERICENTER = 101.4444
MEAN_ANOMALY   = 346.5090

EPHEMERIS_TYPE = 0
CLASSIFICATION_TYPE = U
NORAD_CAT_ID   = 66389
ELEMENT_SET_NO = 999
REV_AT_EPOCH   = 561
BSTAR          = .19689771E-2
MEAN_MOTION_DOT = .79014E-3
MEAN_MOTION_DDOT = 0

CCSDS_OMM_VERS = 2.0
CREATION_DATE  = 
ORIGINATOR     = 

OBJECT_NAME    = STARLINK-35665
OBJECT_ID      = 2025-257L
CENTER_NAME    = EARTH
REF_FRAME      = TEME
TIME_SYSTEM    = UTC
MEAN_ELEMENT_THEORY = SGP/SGP4

EPOCH          = 2025-12-07T06:36:21.781440
MEAN_MOTION    = 15.49388839
ECCENTRICITY   = .00013095
INCLINATION    = 53.1594
RA_OF_ASC_NODE = 289.8739
ARG_OF_PERICENTER = 94.4645
MEAN_ANOMALY   = 265.6513

EPHEMERIS_TYPE = 0
CLASSIFICATION_TYPE = U
NORAD_CAT_ID   = 66390
ELEMENT_SET_NO = 999
REV_AT_EPOCH   = 563
BSTAR          = .291204E-2
MEAN_MOTION_DOT = .165447E-2
MEAN_MOTION_DDOT = 0

CCSDS_OMM_VERS = 2.0
CREATION_DATE  = 
ORIGINATOR     = 

OBJECT_NAME    = STARLINK-35656
OBJECT_ID      = 2025-257M
CENTER_NAME    = EARTH
REF_FRAME      = TEME
TIME_SYSTEM    = UTC
MEAN_ELEMENT_THEORY = SGP/SGP4

EPOCH          = 2025-12-07T07:11:14.124192
MEAN_MOTION    = 15.39607190
ECCENTRICITY   = .00014843
INCLINATION    = 53.1598
RA_OF_ASC_NODE = 290.0172
ARG_OF_PERICENTER = 119.2267
MEAN_ANOMALY   = 240.8886

EPHEMERIS_TYPE = 0
CLASSIFICATION_TYPE = U
NORAD_CAT_ID   = 66391
ELEMENT_SET_NO = 999
REV_AT_EPOCH   = 563
BSTAR          = .1971351E-2
MEAN_MOTION_DOT = .79243E-3
MEAN_MOTION_DDOT = 0

CCSDS_OMM_VERS = 2.0
CREATION_DATE  = 
ORIGINATOR     = 

OBJECT_NAME    = STARLINK-35671
OBJECT_ID      = 2025-257N
CENTER_NAME    = EARTH
REF_FRAME      = TEME
TIME_SYSTEM    = UTC
MEAN_ELEMENT_THEORY = SGP/SGP4

EPOCH          = 2025-12-07T06:00:04.999968
MEAN_MOTION    = 15.39544403
ECCENTRICITY   = .00017331
INCLINATION    = 53.1602
RA_OF_ASC_NODE = 290.3124
ARG_OF_PERICENTER = 92.5879
MEAN_ANOMALY   = 329.6122

EPHEMERIS_TYPE = 0
CLASSIFICATION_TYPE = U
NORAD_CAT_ID   = 66392
ELEMENT_SET_NO = 999
REV_AT_EPOCH   = 561
BSTAR          = .26125692E-2
MEAN_MOTION_DOT = .105293E-2
MEAN_MOTION_DDOT = 0

CCSDS_OMM_VERS = 2.0
CREATION_DATE  = 
ORIGINATOR     = 

OBJECT_NAME    = STARLINK-35652
OBJECT_ID      = 2025-257P
CENTER_NAME    = EARTH
REF_FRAME      = TEME
TIME_SYSTEM    = UTC
MEAN_ELEMENT_THEORY = SGP/SGP4

EPOCH          = 2025-12-07T06:00:04.999968
MEAN_MOTION    = 15.39556082
ECCENTRICITY   = .00014734
INCLINATION    = 53.1589
RA_OF_ASC_NODE = 290.2133
ARG_OF_PERICENTER = 97.4726
MEAN_ANOMALY   = 14.3827

EPHEMERIS_TYPE = 0
CLASSIFICATION_TYPE = U
NORAD_CAT_ID   = 66393
ELEMENT_SET_NO = 999
REV_AT_EPOCH   = 561
BSTAR          = .22418952E-2
MEAN_MOTION_DOT = .90151E-3
MEAN_MOTION_DDOT = 0

CCSDS_OMM_VERS = 2.0
CREATION_DATE  = 
ORIGINATOR     = 

OBJECT_NAME    = STARLINK-35672
OBJECT_ID      = 2025-257Q
CENTER_NAME    = EARTH
REF_FRAME      = TEME
TIME_SYSTEM    = UTC
MEAN_ELEMENT_THEORY = SGP/SGP4

EPOCH          = 2025-12-07T06:00:04.999968
MEAN_MOTION    = 15.39909783
ECCENTRICITY   = .00012547
INCLINATION    = 53.1590
RA_OF_ASC_NODE = 290.2087
ARG_OF_PERICENTER = 75.1606
MEAN_ANOMALY   = 38.5094

EPHEMERIS_TYPE = 0
CLASSIFICATION_TYPE = U
NORAD_CAT_ID   = 66394
ELEMENT_SET_NO = 999
REV_AT_EPOCH   = 561
BSTAR          = -.12679142E-1
MEAN_MOTION_DOT = -.481388E-2
MEAN_MOTION_DDOT = 0

CCSDS_OMM_VERS = 2.0
CREATION_DATE  = 
ORIGINATOR     = 

OBJECT_NAME    = STARLINK-35681
OBJECT_ID      = 2025-257R
CENTER_NAME    = EARTH
REF_FRAME      = TEME
TIME_SYSTEM    = UTC
MEAN_ELEMENT_THEORY = SGP/SGP4

EPOCH          = 2025-12-07T06:00:04.999968
MEAN_MOTION    = 15.39544627
ECCENTRICITY   = .00008756
INCLINATION    = 53.1592
RA_OF_ASC_NODE = 290.1619
ARG_OF_PERICENTER = 93.5267
MEAN_ANOMALY   = 44.1106

EPHEMERIS_TYPE = 0
CLASSIFICATION_TYPE = U
NORAD_CAT_ID   = 66395
ELEMENT_SET_NO = 999
REV_AT_EPOCH   = 545
BSTAR          = .2249268E-2
MEAN_MOTION_DOT = .90418E-3
MEAN_MOTION_DDOT = 0

CCSDS_OMM_VERS = 2.0
CREATION_DATE  = 
ORIGINATOR     = 

OBJECT_NAME    = STARLINK-35669
OBJECT_ID      = 2025-257S
CENTER_NAME    = EARTH
REF_FRAME      = TEME
TIME_SYSTEM    = UTC
MEAN_ELEMENT_THEORY = SGP/SGP4

EPOCH          = 2025-12-07T06:00:04.999968
MEAN_MOTION    = 15.39546270
ECCENTRICITY   = .00008467
INCLINATION    = 53.1591
RA_OF_ASC_NODE = 290.1573
ARG_OF_PERICENTER = 97.6495
MEAN_ANOMALY   = 41.8181

EPHEMERIS_TYPE = 0
CLASSIFICATION_TYPE = U
NORAD_CAT_ID   = 66396
ELEMENT_SET_NO = 999
REV_AT_EPOCH   = 561
BSTAR          = .22414474E-2
MEAN_MOTION_DOT = .90103E-3
MEAN_MOTION_DDOT = 0

CCSDS_OMM_VERS = 2.0
CREATION_DATE  = 
ORIGINATOR     = 

OBJECT_NAME    = STARLINK-35510
OBJECT_ID      = 2025-257T
CENTER_NAME    = EARTH
REF_FRAME      = TEME
TIME_SYSTEM    = UTC
MEAN_ELEMENT_THEORY = SGP/SGP4

EPOCH          = 2025-12-07T06:00:04.999968
MEAN_MOTION    = 15.39749152
ECCENTRICITY   = .00009319
INCLINATION    = 53.1596
RA_OF_ASC_NODE = 290.1099
ARG_OF_PERICENTER = 92.2243
MEAN_ANOMALY   = 71.0782

EPHEMERIS_TYPE = 0
CLASSIFICATION_TYPE = U
NORAD_CAT_ID   = 66397
ELEMENT_SET_NO = 999
REV_AT_EPOCH   = 561
BSTAR          = -.62709743E-2
MEAN_MOTION_DOT = -.244395E-2
MEAN_MOTION_DDOT = 0

CCSDS_OMM_VERS = 2.0
CREATION_DATE  = 
ORIGINATOR     = 

OBJECT_NAME    = STARLINK-35642
OBJECT_ID      = 2025-257U
CENTER_NAME    = EARTH
REF_FRAME      = TEME
TIME_SYSTEM    = UTC
MEAN_ELEMENT_THEORY = SGP/SGP4

EPOCH          = 2025-12-06T12:07:51.672288
MEAN_MOTION    = 15.47370943
ECCENTRICITY   = .00013279
INCLINATION    = 53.1588
RA_OF_ASC_NODE = 293.6043
ARG_OF_PERICENTER = 337.0200
MEAN_ANOMALY   = 23.0748

EPHEMERIS_TYPE = 0
CLASSIFICATION_TYPE = U
NORAD_CAT_ID   = 66398
ELEMENT_SET_NO = 999
REV_AT_EPOCH   = 541
BSTAR          = -.16841025E-2
MEAN_MOTION_DOT = -.86994E-3
MEAN_MOTION_DDOT = 0

CCSDS_OMM_VERS = 2.0
CREATION_DATE  = 
ORIGINATOR     = 

OBJECT_NAME    = STARLINK-35657
OBJECT_ID      = 2025-257V
CENTER_NAME    = EARTH
REF_FRAME      = TEME
TIME_SYSTEM    = UTC
MEAN_ELEMENT_THEORY = SGP/SGP4

EPOCH          = 2025-12-07T06:00:04.999968
MEAN_MOTION    = 15.39505365
ECCENTRICITY   = .00010937
INCLINATION    = 53.1596
RA_OF_ASC_NODE = 290.1056
ARG_OF_PERICENTER = 121.4537
MEAN_ANOMALY   = 43.7738

EPHEMERIS_TYPE = 0
CLASSIFICATION_TYPE = U
NORAD_CAT_ID   = 66399
ELEMENT_SET_NO = 999
REV_AT_EPOCH   = 561
BSTAR          = .28689679E-2
MEAN_MOTION_DOT = .115675E-2
MEAN_MOTION_DDOT = 0

